{"fetched_at":"2026-07-21T17:53:41.378Z","source":"https://celestrak.org/NORAD/elements/gp.php?NAME=O3B&FORMAT=JSON","constellation":"o3b-mpower","records":[{"OBJECT_NAME":"O3B MPOWER F1","OBJECT_ID":"2022-174A","EPOCH":"2026-07-21T02:58:10.640928","CLASSIFICATION_TYPE":"U","MEAN_MOTION":5.00114814,"ECCENTRICITY":0.00066732,"INCLINATION":0.0487,"RA_OF_ASC_NODE":338.9649,"ARG_OF_PERICENTER":150.7006,"MEAN_ANOMALY":228.3447,"EPHEMERIS_TYPE":0,"NORAD_CAT_ID":54755,"ELEMENT_SET_NO":999,"REV_AT_EPOCH":6705,"BSTAR":0,"MEAN_MOTION_DOT":-2.4e-7,"MEAN_MOTION_DDOT":0},{"OBJECT_NAME":"O3B MPOWER F2","OBJECT_ID":"2022-174B","EPOCH":"2026-07-20T21:24:02.056608","CLASSIFICATION_TYPE":"U","MEAN_MOTION":5.00114934,"ECCENTRICITY":0.00057751,"INCLINATION":0.0446,"RA_OF_ASC_NODE":339.7045,"ARG_OF_PERICENTER":133.867,"MEAN_ANOMALY":246.4863,"EPHEMERIS_TYPE":0,"NORAD_CAT_ID":54756,"ELEMENT_SET_NO":999,"REV_AT_EPOCH":6713,"BSTAR":0,"MEAN_MOTION_DOT":-2.4e-7,"MEAN_MOTION_DDOT":0},{"OBJECT_NAME":"O3B MPOWER F4","OBJECT_ID":"2023-059A","EPOCH":"2026-07-20T22:56:30.908256","CLASSIFICATION_TYPE":"U","MEAN_MOTION":5.00115401,"ECCENTRICITY":0.00077386,"INCLINATION":0.0628,"RA_OF_ASC_NODE":349.0047,"ARG_OF_PERICENTER":133.0309,"MEAN_ANOMALY":238.0369,"EPHEMERIS_TYPE":0,"NORAD_CAT_ID":56367,"ELEMENT_SET_NO":999,"REV_AT_EPOCH":6029,"BSTAR":0,"MEAN_MOTION_DOT":-2.4e-7,"MEAN_MOTION_DDOT":0},{"OBJECT_NAME":"O3B MPOWER F3","OBJECT_ID":"2023-059B","EPOCH":"2026-07-21T04:32:03.010272","CLASSIFICATION_TYPE":"U","MEAN_MOTION":5.00116469,"ECCENTRICITY":0.00066513,"INCLINATION":0.0635,"RA_OF_ASC_NODE":348.1162,"ARG_OF_PERICENTER":127.6165,"MEAN_ANOMALY":244.3332,"EPHEMERIS_TYPE":0,"NORAD_CAT_ID":56368,"ELEMENT_SET_NO":999,"REV_AT_EPOCH":5642,"BSTAR":0,"MEAN_MOTION_DOT":-2.4e-7,"MEAN_MOTION_DDOT":0},{"OBJECT_NAME":"O3B MPOWER F5","OBJECT_ID":"2023-175A","EPOCH":"2026-07-20T11:46:07.591296","CLASSIFICATION_TYPE":"U","MEAN_MOTION":5.0011585,"ECCENTRICITY":0.00055662,"INCLINATION":0.053,"RA_OF_ASC_NODE":8.6566,"ARG_OF_PERICENTER":128.5497,"MEAN_ANOMALY":222.834,"EPHEMERIS_TYPE":0,"NORAD_CAT_ID":58346,"ELEMENT_SET_NO":999,"REV_AT_EPOCH":5110,"BSTAR":0,"MEAN_MOTION_DOT":-2.4e-7,"MEAN_MOTION_DDOT":0},{"OBJECT_NAME":"O3B MPOWER F6","OBJECT_ID":"2023-175B","EPOCH":"2026-07-21T04:34:20.596224","CLASSIFICATION_TYPE":"U","MEAN_MOTION":5.00115756,"ECCENTRICITY":0.00044323,"INCLINATION":0.0545,"RA_OF_ASC_NODE":0.1553,"ARG_OF_PERICENTER":118.3076,"MEAN_ANOMALY":241.579,"EPHEMERIS_TYPE":0,"NORAD_CAT_ID":58347,"ELEMENT_SET_NO":999,"REV_AT_EPOCH":5004,"BSTAR":0,"MEAN_MOTION_DOT":-2.4e-7,"MEAN_MOTION_DDOT":0},{"OBJECT_NAME":"O3B MPOWER F7","OBJECT_ID":"2024-244A","EPOCH":"2026-07-20T20:34:16.968576","CLASSIFICATION_TYPE":"U","MEAN_MOTION":5.00115354,"ECCENTRICITY":0.00059272,"INCLINATION":0.0655,"RA_OF_ASC_NODE":341.708,"ARG_OF_PERICENTER":133.1002,"MEAN_ANOMALY":245.2506,"EPHEMERIS_TYPE":0,"NORAD_CAT_ID":62362,"ELEMENT_SET_NO":999,"REV_AT_EPOCH":2820,"BSTAR":0,"MEAN_MOTION_DOT":-2.4e-7,"MEAN_MOTION_DDOT":0},{"OBJECT_NAME":"O3B MPOWER F8","OBJECT_ID":"2024-244B","EPOCH":"2026-07-21T00:34:32.297088","CLASSIFICATION_TYPE":"U","MEAN_MOTION":5.00115075,"ECCENTRICITY":0.00056907,"INCLINATION":0.0151,"RA_OF_ASC_NODE":10.8368,"ARG_OF_PERICENTER":97.2245,"MEAN_ANOMALY":251.9979,"EPHEMERIS_TYPE":0,"NORAD_CAT_ID":62363,"ELEMENT_SET_NO":999,"REV_AT_EPOCH":2256,"BSTAR":0,"MEAN_MOTION_DOT":-2.4e-7,"MEAN_MOTION_DDOT":0},{"OBJECT_NAME":"O3B MPOWER F9","OBJECT_ID":"2025-153A","EPOCH":"2026-07-20T22:58:35.774400","CLASSIFICATION_TYPE":"U","MEAN_MOTION":5.00115641,"ECCENTRICITY":0.00067876,"INCLINATION":0.0619,"RA_OF_ASC_NODE":4.6293,"ARG_OF_PERICENTER":132.3897,"MEAN_ANOMALY":223.0313,"EPHEMERIS_TYPE":0,"NORAD_CAT_ID":64866,"ELEMENT_SET_NO":999,"REV_AT_EPOCH":2125,"BSTAR":0,"MEAN_MOTION_DOT":-2.4e-7,"MEAN_MOTION_DDOT":0},{"OBJECT_NAME":"O3B MPOWER F10","OBJECT_ID":"2025-153B","EPOCH":"2026-07-21T02:57:34.131744","CLASSIFICATION_TYPE":"U","MEAN_MOTION":5.00114962,"ECCENTRICITY":0.00025692,"INCLINATION":0.0589,"RA_OF_ASC_NODE":1.2755,"ARG_OF_PERICENTER":246.5239,"MEAN_ANOMALY":112.1706,"EPHEMERIS_TYPE":0,"NORAD_CAT_ID":64867,"ELEMENT_SET_NO":999,"REV_AT_EPOCH":2372,"BSTAR":0,"MEAN_MOTION_DOT":-2.4e-7,"MEAN_MOTION_DDOT":0}]}
