O3B MPOWER F1           
1 54755U 22174A   26202.12373427 -.00000024  00000+0  00000+0 0  9998
2 54755   0.0487 338.9649 0006673 150.7006 228.3447  5.00114814 67052
O3B MPOWER F2           
1 54756U 22174B   26201.89169047 -.00000024  00000+0  00000+0 0  9993
2 54756   0.0446 339.7045 0005775 133.8670 246.4863  5.00114934 67133
O3B MPOWER F4           
1 56367U 23059A   26201.95591329 -.00000024  00000+0  00000+0 0  9995
2 56367   0.0628 349.0047 0007738 133.0309 238.0369  5.00115401 60291
O3B MPOWER F3           
1 56368U 23059B   26202.18892373 -.00000024  00000+0  00000+0 0  9995
2 56368   0.0635 348.1162 0006651 127.6165 244.3332  5.00116469 56425
O3B MPOWER F5           
1 58346U 23175A   26201.49036564 -.00000024  00000+0  00000+0 0  9997
2 58346   0.0530   8.6566 0005566 128.5497 222.8340  5.00115850 51108
O3B MPOWER F6           
1 58347U 23175B   26202.19051616 -.00000024  00000+0  00000+0 0  9991
2 58347   0.0545   0.1553 0004432 118.3076 241.5790  5.00115756 50043
O3B MPOWER F7           
1 62362U 24244A   26201.85714084 -.00000024  00000+0  00000+0 0  9998
2 62362   0.0655 341.7080 0005927 133.1002 245.2506  5.00115354 28203
O3B MPOWER F8           
1 62363U 24244B   26202.02398492 -.00000024  00000+0  00000+0 0  9990
2 62363   0.0151  10.8368 0005690  97.2245 251.9979  5.00115075 22565
O3B MPOWER F9           
1 64866U 25153A   26201.95735850 -.00000024  00000+0  00000+0 0  9994
2 64866   0.0619   4.6293 0006787 132.3897 223.0313  5.00115641 21250
O3B MPOWER F10          
1 64867U 25153B   26202.12331171 -.00000024  00000+0  00000+0 0  9993
2 64867   0.0589   1.2755 0002569 246.5239 112.1706  5.00114962 23728
